[{"OBJECT_NAME":"STARLINK-5126","OBJECT_ID":"2022-125BA","EPOCH":"2026-03-09T16:23:25.508832","MEAN_MOTION":15.08836882,"ECCENTRICITY":0.00012159,"INCLINATION":53.2175,"RA_OF_ASC_NODE":204.0275,"ARG_OF_PERICENTER":88.3296,"MEAN_ANOMALY":271.7836,"EPHEMERIS_TYPE":0,"CLASSIFICATION_TYPE":"U","NORAD_CAT_ID":54012,"ELEMENT_SET_NO":999,"REV_AT_EPOCH":18960,"BSTAR":2.8520428e-5,"MEAN_MOTION_DOT":1.66e-6,"MEAN_MOTION_DDOT":0},{"OBJECT_NAME":"SL-8 DEB","OBJECT_ID":"1976-098E","EPOCH":"2026-03-09T08:07:12.416160","MEAN_MOTION":15.06605169,"ECCENTRICITY":0.00102283,"INCLINATION":74.028,"RA_OF_ASC_NODE":26.283,"ARG_OF_PERICENTER":218.296,"MEAN_ANOMALY":294.2383,"EPHEMERIS_TYPE":0,"CLASSIFICATION_TYPE":"U","NORAD_CAT_ID":18504,"ELEMENT_SET_NO":999,"REV_AT_EPOCH":18055,"BSTAR":0.0011587434,"MEAN_MOTION_DOT":0.00017191,"MEAN_MOTION_DDOT":0}]
